NORAD_CAT_ID,OBJECT_NAME,OBJECT_TYPE,EPOCH,MEAN_MOTION,ECCENTRICITY,INCLINATION,RA_OF_ASC_NODE,ARG_OF_PERICENTER,MEAN_ANOMALY,BSTAR,MEAN_MOTION_DOT,MEAN_MOTION_DDOT,TLE_LINE0,TLE_LINE1,TLE_LINE2,SEMIMAJOR_AXIS,PERIOD,APOGEE,PERIGEE,DECAYED
53600.0,STARLINK-4677,PAYLOAD,2024-02-23 20:25:39,15.08836449,0.0001455,53.2199,348.2382,94.7625,265.3533,4.1507e-05,3.73e-06,0.0,0 STARLINK-4677,1 53600U 22104N   24054.85115243  .00000373  00000-0  41507-4 0  9991,2 53600  53.2199 348.2382 0001455  94.7625 265.3533 15.08836449 82884,6917.891,95.438,540.763,538.75,0.0
53600.0,STARLINK-4677,PAYLOAD,2024-02-24 12:19:31,15.08836942,0.0001474,53.2194,345.2615,85.2476,274.8685,7.4488e-05,8.98e-06,0.0,0 STARLINK-4677,1 53600U 22104N   24055.51355425  .00000898  00000-0  74488-4 0  9999,2 53600  53.2194 345.2615 0001474  85.2476 274.8685 15.08836942 83269,6917.89,95.438,540.774,538.735,0.0
53600.0,STARLINK-4677,PAYLOAD,2024-02-25 04:13:22,15.08844381,0.0001398,53.2182,342.2867,88.6706,271.4447,0.00019813,2.867e-05,0.0,0 STARLINK-4677,1 53600U 22104N   24056.17595343  .00002867  00000-0  19813-3 0  9995,2 53600  53.2182 342.2867 0001398  88.6706 271.4447 15.08844381 83085,6917.867,95.437,540.699,538.765,0.0
53600.0,STARLINK-4677,PAYLOAD,2024-02-25 12:10:17,15.08851086,0.0001503,53.2185,340.7996,80.2503,279.8658,0.00032878,4.95e-05,0.0,0 STARLINK-4677,1 53600U 22104N   24056.50715122  .00004950  00000-0  32878-3 0  9992,2 53600  53.2185 340.7996 0001503  80.2503 279.8658 15.08851086 83418,6917.847,95.437,540.751,538.672,0.0
53600.0,STARLINK-4677,PAYLOAD,2024-02-26 04:04:08,15.08877414,0.0001353,53.2173,337.8264,84.2137,275.9009,0.00098335,0.00015413,0.0,0 STARLINK-4677,1 53600U 22104N   24057.16953970  .00015413  00000-0  98335-3 0  9996,2 53600  53.2173 337.8264 0001353  84.2137 275.9009 15.08877414 83230,6917.766,95.435,540.567,538.695,0.0
53600.0,STARLINK-4677,PAYLOAD,2024-02-26 18:22:37,15.08838419,8.53e-05,53.2188,335.1522,96.4808,263.6281,-0.00019586,-3.403e-05,0.0,0 STARLINK-4677,1 53600U 22104N   24057.76570678 -.00003403  00000-0 -19586-3 0  9991,2 53600  53.2188 335.1522 0000853  96.4808 263.6281 15.08838419 83326,6917.885,95.438,540.34,539.16,0.0
53600.0,STARLINK-4677,PAYLOAD,2024-02-27 03:54:56,15.0883687,0.000147,53.218,333.3667,98.1415,261.9744,0.00024152,3.558e-05,0.0,0 STARLINK-4677,1 53600U 22104N   24058.16314936  .00003558  00000-0  24152-3 0  9993,2 53600  53.2180 333.3667 0001470  98.1415 261.9744 15.08836870 83668,6917.89,95.438,540.772,538.738,0.0
53600.0,STARLINK-4677,PAYLOAD,2024-02-27 18:13:25,15.08825045,7.99e-05,53.218,330.6929,109.9829,250.1249,0.00031883,4.788e-05,0.0,0 STARLINK-4677,1 53600U 22104N   24058.75931717  .00004788  00000-0  31883-3 0  9995,2 53600  53.2180 330.6929 0000799 109.9829 250.1249 15.08825045 83473,6917.926,95.439,540.344,539.238,0.0
53600.0,STARLINK-4677,PAYLOAD,2024-02-27 21:24:11,15.08835016,0.0002196,53.217,330.0978,125.7361,234.3835,0.00036163,5.471e-05,0.0,0 STARLINK-4677,1 53600U 22104N   24058.89179551  .00005471  00000-0  36163-3 0  9996,2 53600  53.2170 330.0978 0002196 125.7361 234.3835 15.08835016 83777,6917.896,95.438,541.28,538.241,0.0
53600.0,STARLINK-4677,PAYLOAD,2024-02-28 03:45:43,15.08845044,0.0001415,53.2171,328.9077,95.2282,264.8872,0.0010071,0.00015779,0.0,0 STARLINK-4677,1 53600U 22104N   24059.15675759  .00015779  00000-0  10071-2 0  9998,2 53600  53.2171 328.9077 0001415  95.2282 264.8872 15.08845044 83535,6917.865,95.437,540.709,538.751,0.0
53600.0,STARLINK-4677,PAYLOAD,2024-02-28 22:50:21,15.08841607,0.0001509,53.217,325.3378,100.0827,260.0335,0.0002868,4.28e-05,0.0,0 STARLINK-4677,1 53600U 22104N   24059.95163890  .00004280  00000-0  28680-3 0  9995,2 53600  53.2170 325.3378 0001509 100.0827 260.0335 15.08841607 83930,6917.875,95.437,540.784,538.697,0.0
53600.0,STARLINK-4677,PAYLOAD,2024-02-29 00:25:44,15.08841868,0.0001465,53.2171,325.04,101.5877,258.528,0.00029552,4.419e-05,0.0,0 STARLINK-4677,1 53600U 22104N   24060.01787866  .00004419  00000-0  29552-3 0  9992,2 53600  53.2171 325.0400 0001465 101.5877 258.5280 15.08841868 83666,6917.875,95.437,540.753,538.726,0.0
53600.0,STARLINK-4677,PAYLOAD,2024-02-29 22:41:08,15.08844985,0.0001681,53.2177,320.8799,112.9648,247.1521,0.00019166,2.764e-05,0.0,0 STARLINK-4677,1 53600U 22104N   24060.94523720  .00002764  00000-0  19166-3 0  9992,2 53600  53.2177 320.8799 0001681 112.9648 247.1521 15.08844985 84080,6917.865,95.437,540.893,538.567,0.0
53600.0,STARLINK-4677,PAYLOAD,2024-03-01 09:48:50,15.08846197,0.0001387,53.2169,318.7982,101.5191,258.5957,0.00017412,2.485e-05,0.0,0 STARLINK-4677,1 53600U 22104N   24061.40891569  .00002485  00000-0  17412-3 0  9995,2 53600  53.2169 318.7982 0001387 101.5191 258.5957 15.08846197 84155,6917.861,95.437,540.686,538.767,0.0
53600.0,STARLINK-4677,PAYLOAD,2024-03-01 20:56:32,15.08843477,0.0001552,53.2178,316.7191,111.6399,248.4759,5.9308e-05,6.56e-06,0.0,0 STARLINK-4677,1 53600U 22104N   24061.87259658  .00000656  00000-0  59308-4 0  9992,2 53600  53.2178 316.7191 0001552 111.6399 248.4759 15.08843477 84225,6917.87,95.437,540.808,538.661,0.0
53600.0,STARLINK-4677,PAYLOAD,2024-03-02 00:07:18,15.08844999,0.0001594,53.2177,316.1246,113.0528,247.0633,8.4398e-05,1.056e-05,0.0,0 STARLINK-4677,1 53600U 22104N   24062.00507570  .00001056  00000-0  84398-4 0  9999,2 53600  53.2177 316.1246 0001594 113.0528 247.0633 15.08844999 84243,6917.865,95.437,540.833,538.627,0.0
53600.0,STARLINK-4677,PAYLOAD,2024-03-02 22:22:42,15.08842561,0.0001571,53.2179,311.9605,101.529,258.5878,4.0044e-05,3.49e-06,0.0,0 STARLINK-4677,1 53600U 22104N   24062.93243725  .00000349  00000-0  40044-4 0  9994,2 53600  53.2179 311.9605 0001571 101.5290 258.5878 15.08842561 84386,6917.873,95.437,540.824,538.651,0.0
53600.0,STARLINK-4677,PAYLOAD,2024-03-03 01:33:28,15.08844308,0.0001538,53.2172,311.3618,87.1313,272.9855,7.328e-05,8.79e-06,0.0,0 STARLINK-4677,1 53600U 22104N   24063.06491659  .00000879  00000-0  73280-4 0  9996,2 53600  53.2172 311.3618 0001538  87.1313 272.9855 15.08844308 84123,6917.867,95.437,540.796,538.668,0.0
53600.0,STARLINK-4677,PAYLOAD,2024-03-03 09:30:24,15.08842466,0.0001258,53.216,309.8733,90.8559,269.2578,2.0329e-06,-2.56e-06,0.0,0 STARLINK-4677,1 53600U 22104N   24063.39611643 -.00000256  00000-0  20329-5 0  9996,2 53600  53.2160 309.8733 0001258  90.8559 269.2578 15.08842466 84452,6917.873,95.437,540.608,538.868,0.0
53600.0,STARLINK-4677,PAYLOAD,2024-03-03 20:38:06,15.08839863,0.000122,53.2166,307.7899,85.535,274.5782,0.00012292,1.669e-05,0.0,0 STARLINK-4677,1 53600U 22104N   24063.85979828  .00001669  00000-0  12292-3 0  9995,2 53600  53.2166 307.7899 0001220  85.5350 274.5782 15.08839863 84528,6917.881,95.438,540.59,538.902,0.0
53600.0,STARLINK-4677,PAYLOAD,2024-03-04 09:21:11,15.08850526,0.0001428,53.2177,305.4112,89.7938,270.3218,0.00020456,2.97e-05,0.0,0 STARLINK-4677,1 53600U 22104N   24064.38971178  .00002970  00000-0  20456-3 0  9991,2 53600  53.2177 305.4112 0001428  89.7938 270.3218 15.08850526 84326,6917.848,95.437,540.701,538.725,0.0
53600.0,STARLINK-4677,PAYLOAD,2024-03-04 22:04:15,15.08855955,0.0001223,53.2162,303.0326,95.7101,264.403,0.00020137,2.92e-05,0.0,0 STARLINK-4677,1 53600U 22104N   24064.91962476  .00002920  00000-0  20137-3 0  9992,2 53600  53.2162 303.0326 0001223  95.7101 264.4030 15.08855955 84689,6917.832,95.437,540.543,538.851,0.0
53600.0,STARLINK-4677,PAYLOAD,2024-03-05 20:19:40,15.08830014,0.0001415,53.2172,298.8704,106.0308,254.084,-0.00014775,-2.638e-05,0.0,0 STARLINK-4677,1 53600U 22104N   24065.84699672 -.00002638  00000-0 -14775-3 0  9999,2 53600  53.2172 298.8704 0001415 106.0308 254.0840 15.08830014 84547,6917.911,95.438,540.755,538.797,0.0
53600.0,STARLINK-4677,PAYLOAD,2024-03-05 21:55:03,15.08834275,0.0001509,53.2173,298.5725,107.4575,252.6582,-0.00017204,-3.025e-05,0.0,0 STARLINK-4677,1 53600U 22104N   24065.91323545 -.00003025  00000-0 -17204-3 0  9991,2 53600  53.2173 298.5725 0001509 107.4575 252.6582 15.08834275 84835,6917.898,95.438,540.807,538.719,0.0
53600.0,STARLINK-4677,PAYLOAD,2024-03-06 20:10:27,15.08835365,0.0001545,53.2156,294.4096,109.7439,250.3719,-2.1145e-05,-6.24e-06,0.0,0 STARLINK-4677,1 53600U 22104N   24066.84059926 -.00000624  00000-0 -21145-4 0  9995,2 53600  53.2156 294.4096 0001545 109.7439 250.3719 15.08835365 84698,6917.895,95.438,540.828,538.691,0.0
53600.0,STARLINK-4677,PAYLOAD,2024-03-06 21:45:50,15.0883738,0.0001402,53.2167,294.1146,101.8448,258.2701,-3.7571e-05,-8.86e-06,0.0,0 STARLINK-4677,1 53600U 22104N   24066.90683915 -.00000886  00000-0 -37571-4 0  9993,2 53600  53.2167 294.1146 0001402 101.8448 258.2701 15.08837380 84987,6917.888,95.438,540.723,538.784,0.0
53600.0,STARLINK-4677,PAYLOAD,2024-03-08 00:47:24,15.08845151,0.0001348,53.2161,289.0577,103.4175,256.6968,0.00037474,5.682e-05,0.0,0 STARLINK-4677,1 53600U 22104N   24068.03292268  .00005682  00000-0  37474-3 0  9994,2 53600  53.2161 289.0577 0001348 103.4175 256.6968 15.08845151 84876,6917.865,95.437,540.662,538.797,0.0
53600.0,STARLINK-4677,PAYLOAD,2024-03-08 15:05:52,15.08843295,0.0001494,53.2157,286.3839,90.9179,269.1984,0.00019074,2.749e-05,0.0,0 STARLINK-4677,1 53600U 22104N   24068.62908415  .00002749  00000-0  19074-3 0  9994,2 53600  53.2157 286.3839 0001494  90.9179 269.1984 15.08843295 85244,6917.87,95.437,540.769,538.702,0.0
53600.0,STARLINK-4677,PAYLOAD,2024-03-08 21:27:25,15.08844455,0.0001302,53.2153,285.196,99.9702,260.1437,0.00016841,2.394e-05,0.0,0 STARLINK-4677,1 53600U 22104N   24068.89404245  .00002394  00000-0  16841-3 0  9990,2 53600  53.2153 285.1960 0001302  99.9702 260.1437 15.08844455 85288,6917.867,95.437,540.632,538.831,0.0
53600.0,STARLINK-4677,PAYLOAD,2024-03-09 06:59:44,15.08843043,0.000124,53.2153,283.4117,99.0292,261.084,0.00010895,1.447e-05,0.0,0 STARLINK-4677,1 53600U 22104N   24069.29148274  .00001447  00000-0  10895-3 0  9993,2 53600  53.2153 283.4117 0001240  99.0292 261.0840 15.08843043 85346,6917.871,95.437,540.594,538.878,0.0
